TRANSPORTER-12 OBJECT BA
1 62657U 25009BA  26068.70118713  .00011330  00000+0  42733-3 0  9991
2 62657  97.3985 151.1390 0000403 234.6623 125.4579 15.27214003 63739
STARLINK-35597          
1 66493U 25263J   26068.15307148  .00041609  00000+0  15119-2 0  9995
2 66493  43.0012 354.0031 0001310 261.5589  98.5114 15.27605625 18812
